ONEWEB-0328             
1 49197U 21083M   25020.62240025  .00000119  00000+0  29125-3 0  9996
2 49197  87.8881  62.1374 0001989  95.5099 264.6257 13.13469694163614
ONEWEB-0331             
1 49198U 21083N   25020.60268313  .00000008  00000+0 -11700-4 0  9994
2 49198  87.9079  77.4250 0001973  90.7279 269.4079 13.18683702162456
ONEWEB-0333             
1 49199U 21083P   25020.61763096  .00000007  00000+0 -15991-4 0  9999
2 49199  87.8895  62.1883 0001840 100.7938 259.3399 13.13469067163626
ONEWEB-0334             
1 49200U 21083Q   25020.46398668  .00000078  00000+0  16079-3 0  9998
2 49200  87.9248  16.4754 0001341 119.7621 240.3646 13.20770437169115
ONEWEB-0335             
1 49201U 21083R   25020.61286952 -.00000112  00000+0 -34234-3 0  9992
2 49201  87.8896  62.1778 0001830  88.3732 271.7607 13.13469030163637
ONEWEB-0336             
1 49202U 21083S   25020.58271938 -.00000091  00000+0 -28532-3 0  9997
2 49202  87.8893  62.1775 0001647  95.9140 264.2177 13.13469139163623
ONEWEB-0337             
1 49203U 21083T   25020.59210247 -.00000301  00000+0 -85943-3 0  9998
2 49203  87.8894  62.1742 0001978  93.7088 266.4267 13.13468876163624
ONEWEB-0338             
1 49204U 21083U   25020.47109062  .00000457  00000+0  10918-2 0  9997
2 49204  87.9255  16.4704 0001668 101.9626 258.1694 13.20769702169137
ONEWEB-0339             
1 49205U 21083V   25020.60334707 -.00000283  00000+0 -81071-3 0  9997
2 49205  87.8893  62.1636 0001976  97.0740 263.0614 13.13469259163600
ONEWEB-0340             
1 49206U 21083W   25020.58845860  .00000010  00000+0 -85838-5 0  9996
2 49206  87.9079  77.4241 0001901  94.9976 265.1373 13.18683610162411
ONEWEB-0341             
1 49207U 21083X   25020.59635661 -.00001010  00000+0 -25938-2 0  9998
2 49207  87.9079  77.4338 0002500  98.8154 261.3261 13.18690801162432
ONEWEB-0342             
1 49208U 21083Y   25020.47738847  .00000063  00000+0  12270-3 0  9997
2 49208  87.9248  16.4607 0001734  91.7936 268.3396 13.20774025169102
ONEWEB-0343             
1 49209U 21083Z   25020.59162993 -.00000002  00000+0 -38165-4 0  9991
2 49209  87.9071  77.4291 0002453 107.3361 252.8039 13.18685002162487
ONEWEB-0344             
1 49210U 21083AA  25020.57001979  .00000240  00000+0  62185-3 0  9997
2 49210  87.8895  62.1931 0002236  92.2182 267.9203 13.13467741163604
ONEWEB-0345             
1 49211U 21083AB  25020.58747618 -.00000164  00000+0 -48466-3 0  9999
2 49211  87.8892  62.1582 0002306  92.3720 267.7673 13.13469452163612
ONEWEB-0346             
1 49212U 21083AC  25020.60110381 -.00000087  00000+0 -25264-3 0  9999
2 49212  87.9077  77.4423 0001789  88.0746 272.0591 13.18683117162423
ONEWEB-0348             
1 49213U 21083AD  25020.46792784  .00000132  00000+0  29250-3 0  9995
2 49213  87.9255  16.4553 0002200  73.6531 286.4844 13.20773475169135
ONEWEB-0350             
1 49214U 21083AE  25020.59699659 -.00000321  00000+0 -91511-3 0  9998
2 49214  87.8891  62.1478 0002159  93.3556 266.7820 13.13468942163641
ONEWEB-0351             
1 49215U 21083AF  25020.53722143  .00000025  00000+0  28354-4 0  9993
2 49215  87.9249  16.4312 0002119 112.7854 247.3503 13.20769804169101
ONEWEB-0352             
1 49216U 21083AG  25020.57795349  .00000050  00000+0  10279-3 0  9990
2 49216  87.8894  62.1887 0002060 109.3874 250.7478 13.13467908163735
ONEWEB-0354             
1 49217U 21083AH  25020.48685099 -.00000222  00000+0 -57798-3 0  9991
2 49217  87.9257  16.4341 0002141  84.1902 275.9476 13.20773003169130
ONEWEB-0355             
1 49218U 21083AJ  25020.60810521 -.00000229  00000+0 -66136-3 0  9999
2 49218  87.8893  62.1816 0002051  99.6601 260.4760 13.13469140163616
ONEWEB-0357             
1 49219U 21083AK  25020.48371051  .00000049  00000+0  87373-4 0  9991
2 49219  87.9253  16.4459 0001909  93.3815 266.7537 13.20772951169131
ONEWEB-0332             
1 49279U 21090A   25020.56535500  .00000131  00000+0  31915-3 0  9997
2 49279  87.8987  31.6481 0001563  98.7372 261.3935 13.14501974160230
ONEWEB-0347             
1 49280U 21090B   25020.47423629  .00000094  00000+0  19998-3 0  9992
2 49280  87.9255  16.4520 0001386  93.5286 266.6006 13.20773250163365
ONEWEB-0349             
1 49281U 21090C   25020.50578972  .00000037  00000+0  58872-4 0  9991
2 49281  87.9256  16.4491 0001669  87.6465 272.4859 13.20774102162155
ONEWEB-0353             
1 49282U 21090D   25020.55742821  .00000205  00000+0  51718-3 0  9991
2 49282  87.8989  31.6357 0001539  97.7828 262.3476 13.14502100161522
ONEWEB-0356             
1 49283U 21090E   25020.50422362  .00000002  00000+0 -26015-4 0  9991
2 49283  87.9256  16.4420 0001479  54.4178 305.7093 13.20772977162159
ONEWEB-0358             
1 49284U 21090F   25020.53423096  .00000073  00000+0  14835-3 0  9993
2 49284  87.9256  16.4246 0001870  80.8878 279.2467 13.20774129162882
ONEWEB-0359             
1 49285U 21090G   25020.53105837  .00000063  00000+0  12180-3 0  9994
2 49285  87.9253  16.4398 0002215  83.9907 276.1478 13.20772936162869
ONEWEB-0360             
1 49286U 21090H   25020.52157709  .00000086  00000+0  18018-3 0  9990
2 49286  87.9253  16.4472 0001959  86.0676 274.0681 13.20769854162176
ONEWEB-0361             
1 49287U 21090J   25020.50264325  .00000018  00000+0  12946-4 0  9992
2 49287  87.9254  16.4460 0001651  83.8962 276.2359 13.20773872162628
ONEWEB-0362             
1 49288U 21090K   25020.57987826 -.00000240  00000+0 -63304-3 0  9990
2 49288  87.9148  46.8977 0002059  98.8322 261.3044 13.19723747159301
ONEWEB-0363             
1 49289U 21090L   25020.51842027  .00000014  00000+0  22471-5 0  9997
2 49289  87.9253  16.4380 0001693  73.1383 286.9936 13.20773644162632
ONEWEB-0364             
1 49290U 21090M   25020.48053884 -.00000206  00000+0 -53795-3 0  9996
2 49290  87.9257  16.4736 0001644  84.8624 275.2697 13.20770908163766
ONEWEB-0365             
1 49291U 21090N   25020.58935191 -.00000036  00000+0 -12222-3 0  9999
2 49291  87.9142  46.8618 0001784  97.8600 262.2736 13.19727779158815
ONEWEB-0366             
1 49292U 21090P   25020.55425953  .00000271  00000+0  69565-3 0  9998
2 49292  87.8987  31.6474 0001705  88.5547 271.5778 13.14501101161518
ONEWEB-0367             
1 49293U 21090Q   25020.51685910 -.00000130  00000+0 -35287-3 0  9996
2 49293  87.9257  16.4335 0001771  90.8842 269.2494 13.20768579162155
ONEWEB-0368             
1 49294U 21090R   25020.49001193 -.00000007  00000+0 -49355-4 0  9994
2 49294  87.9256  16.4707 0000892  83.5013 276.6222 13.20773058163307
ONEWEB-0369             
1 49295U 21090S   25020.58461760  .00000008  00000+0 -11405-4 0  9990
2 49295  87.9148  46.8809 0001743  96.8868 263.2463 13.19727170158809
ONEWEB-0370             
1 49296U 21090T   25020.52633340  .00000047  00000+0  83671-4 0  9996
2 49296  87.9256  16.4361 0002160  90.8154 269.3227 13.20769427162197
ONEWEB-0371             
1 49297U 21090U   25020.59251829 -.00000037  00000+0 -12590-3 0  9994
2 49297  87.9149  46.8691 0001894  97.6545 262.4803 13.19723020158842
ONEWEB-0372             
1 49298U 21090V   25020.51513412  .00000037  00000+0  58858-4 0  9992
2 49298  87.9255  16.4474 0001690  91.1071 269.0256 13.20769792162163
ONEWEB-0373             
1 49299U 21090W   25020.54209918  .00000097  00000+0  20731-3 0  9993
2 49299  87.9253  16.4551 0001659  79.8528 280.2792 13.20773488163352
ONEWEB-0374             
1 49300U 21090X   25020.54157451  .00000175  00000+0  43729-3 0  9999
2 49300  87.8988  31.6322 0001365  77.2454 282.8828 13.14501271160210
ONEWEB-0375             
1 49301U 21090Y   25020.52947196  .00000043  00000+0  73199-4 0  9990
2 49301  87.9254  16.4349 0001833  65.9037 294.2288 13.20773353162857
ONEWEB-0376             
1 49302U 21090Z   25020.59094552 -.00000009  00000+0 -54421-4 0  9998
2 49302  87.9142  46.8637 0001742 102.7653 257.3674 13.19727314158841
ONEWEB-0377             
1 49303U 21090AA  25020.43965627  .00000015  00000+0  54649-5 0  9990
2 49303  87.9253  16.4453 0002016  84.1809 275.9554 13.20773444162839
ONEWEB-0378             
1 49304U 21090AB  25020.46175310  .00000094  00000+0  19996-3 0  9997
2 49304  87.9257  16.4464 0001750  83.4184 276.7149 13.20772963162102
ONEWEB-0379             
1 49305U 21090AC  25020.53681573  .00000038  00000+0  68325-4 0  9998
2 49305  87.8988  31.6370 0001721  90.8232 269.3095 13.14501903160217
ONEWEB-0380             
1 49306U 21090AD  25020.58777191 -.00000122  00000+0 -33716-3 0  9997
2 49306  87.9148  46.8824 0001805  92.4490 267.6849 13.19726929158819
ONEWEB-0381             
1 49307U 21090AE  25020.43637048  .00000005  00000+0 -19568-4 0  9997
2 49307  87.9255  16.4535 0001895  83.3960 276.7389 13.20771062162142
ONEWEB-0382             
1 49308U 21090AF  25020.49948322  .00000049  00000+0  89480-4 0  9991
2 49308  87.9255  16.4363 0001541  74.9794 285.1510 13.20773559162144
ONEWEB-0383             
1 49309U 21090AG  25020.53048106 -.00000026  00000+0 -10488-3 0  9996
2 49309  87.8986  31.6218 0001601  88.5771 271.5542 13.14504219160247
ONEWEB-0384             
1 49310U 21090AH  25020.49632836  .00000019  00000+0  15028-4 0  9998
2 49310  87.9257  16.4518 0001486  72.4759 287.6537 13.20773794162151
ONEWEB-0385             
1 49311U 21090AJ  25020.49159691 -.00000001  00000+0 -34706-4 0  9999
2 49311  87.9257  16.4536 0001679  84.6931 275.4394 13.20769367162127
ONEWEB-0386             
1 49312U 21090AK  25020.43319816  .00000063  00000+0  12320-3 0  9994
2 49312  87.9248  16.4454 0001555  79.4067 280.7241 13.20770130162133
ONEWEB-0387             
1 49313U 21090AL  25020.49317987  .00000102  00000+0  21802-3 0  9997
2 49313  87.9240  16.5101 0001935  77.1892 282.9457 13.20772292162144
ONEWEB-0388             
1 49314U 21090AM  25020.58303274  .00000019  00000+0  15639-4 0  9991
2 49314  87.9149  46.8879 0001695  91.0772 269.0555 13.19727964158803
